OSCAR 7 (AO-7)          
1 07530U 74089B   18096.37298963 -.00000031  00000-0  83158-4 0  9998
2 07530 101.6794  64.7927 0012437 113.2813  42.2813 12.53631825985598
UOSAT 2 (UO-11)         
1 14781U 84021B   18096.14239893  .00000061  00000-0  13671-4 0  9998
2 14781  97.6581 135.3973 0007548 328.3576  31.7184 14.82992419833768
LUSAT (LO-19)           
1 20442U 90005G   18095.80014485  .00000022  00000-0  24194-4 0  9997
2 20442  98.6048  34.7591 0011983   9.6593 350.4819 14.32891414473520
ITAMSAT (IO-26)         
1 22826U 93061D   18095.90706175  .00000008  00000-0  20644-4 0  9995
2 22826  98.8501  70.7871 0008815 180.3435 179.7742 14.30357244279175
RADIO ROSTO (RS-15)     
1 23439U 94085A   18095.44666056 -.00000052  00000-0 -25790-3 0  9992
2 23439  64.8140 106.4750 0159708 195.2529 316.1700 11.27566865958526
JAS-2 (FO-29)           
1 24278U 96046B   18096.50255260 -.00000050  00000-0 -11513-4 0  9999
2 24278  98.5238 305.1099 0349463 297.0099  59.5764 13.53082509 68547
TECHSAT 1B (GO-32)      
1 25397U 98043D   18095.78159693 -.00000007  00000-0  16054-4 0  9999
2 25397  98.6440  37.4422 0000764 168.6742 191.4454 14.23642725 25429
ISS (ZARYA)             
1 25544U 98067A   18096.57940682  .00002236  00000-0  40882-4 0  9994
2 25544  51.6441  15.6910 0001461 308.9930 110.1010 15.54204274107386
PCSAT (NO-44)           
1 26931U 01043C   18095.85171223 -.00000041  00000-0  16145-4 0  9998
2 26931  67.0518  56.0551 0006884 282.6954  77.3377 14.30499478862137
SAUDISAT 1C (SO-50)     
1 27607U 02058C   18096.02682545 -.00000010  00000-0  19353-4 0  9990
2 27607  64.5551 310.6026 0056938 345.0697  14.8721 14.75435878822314
CUTE-1 (CO-55)          
1 27844U 03031E   18096.47482672  .00000042  00000-0  38813-4 0  9999
2 27844  98.6891 106.1828 0009109 213.3120 146.7485 14.22103846766000
CUBESAT XI-IV (CO-57)   
1 27848U 03031J   18096.48459624  .00000030  00000-0  33598-4 0  9997
2 27848  98.6978 106.5659 0008855 224.1687 135.8784 14.21709049765872
MOZHAYETS 4 (RS-22)     
1 27939U 03042A   18096.54285756  .00000083  00000-0  23417-4 0  9997
2 27939  97.9782 237.5756 0013322  21.8913  39.7624 14.66671637776316
CUBESAT XI-V (CO-58)    
1 28895U 05043F   18095.87408235  .00000128  00000-0  33327-4 0  9997
2 28895  97.8983 250.3011 0015534 300.1969  59.7695 14.63526539663062
CUTE-1.7+APD II (CO-65) 
1 32785U 08021C   18096.50340420  .00000200  00000-0  27391-4 0  9996
2 32785  97.5511 112.0921 0011514 277.0536  82.9371 14.88089347538517
DELFI-C3 (DO-64)        
1 32789U 08021G   18096.08734763  .00001263  00000-0  90997-4 0  9992
2 32789  97.5204 152.7025 0012820 176.4153 183.7168 15.05882049540937
SEEDS II (CO-66)        
1 32791U 08021J   18095.83592582  .00000196  00000-0  25468-4 0  9993
2 32791  97.5415 116.6475 0011822 257.9325 102.0569 14.90505515538736
YUBILEINY (RS-30)       
1 32953U 08025A   18096.48868342  .00000031  00000-0  15128-3 0  9998
2 32953  82.5034  57.2615 0019601   9.9521 350.1943 12.43082580447862
KKS-1 (KISEKI)          
1 33499U 09002H   18095.94813138  .00000093  00000-0  21769-4 0  9990
2 33499  98.3536 275.3774 0009719 155.7107 204.4561 14.75310633494104
SWISSCUBE               
1 35932U 09051B   18095.87419771  .00000145  00000-0  43695-4 0  9995
2 35932  98.5340 245.3400 0008801  76.0550 284.1625 14.56138757452872
BEESAT                  
1 35933U 09051C   18096.52501042  .00000111  00000-0  36004-4 0  9991
2 35933  98.5382 247.5073 0007076  86.1061 274.0945 14.56245223453119
ITUPSAT 1               
1 35935U 09051E   18095.37062025  .00000113  00000-0  37000-4 0  9997
2 35935  98.5491 246.5796 0009370  84.0821 276.1443 14.55424453452739
XIWANG-1 (HOPE-1)       
1 36122U 09072B   18096.18776774 -.00000066  00000-0 -61580-4 0  9991
2 36122 100.0806 114.1777 0006782 279.6757  80.3591 13.16343975399172
JUGNU                   
1 37839U 11058B   18096.37679066  .00000319  00000-0  28027-4 0  9999
2 37839  19.9609 112.6901 0018935 174.4829 313.4955 14.12614808335205
SRMSAT                  
1 37841U 11058D   18095.51434036  .00000293  00000-0  15748-4 0  9990
2 37841  19.9711 165.6256 0012076  52.8225  73.4160 14.10602471334517
M-CUBED & EXP-1 PRIME   
1 37855U 11061F   18095.51064920  .00000719  00000-0  45152-4 0  9995
2 37855 101.7242 120.8563 0176876 297.3242  61.0059 15.04239275350250
STRAND-1                
1 39090U 13009E   18096.15336923  .00000004  00000-0  16706-4 0  9998
2 39090  98.5291 303.4470 0009815 145.3177 214.8650 14.35017876267495
SOMP                    
1 39134U 13015E   18096.17769462  .00001066  00000-0  60126-4 0  9998
2 39134  64.8650 359.8134 0020697 219.2802 140.6824 15.18963019273967
BEESAT-3                
1 39135U 13015F   18096.21419131  .00000806  00000-0  50990-4 0  9998
2 39135  64.8709  12.1238 0026397 245.6142 114.2228 15.16518782273731
BEESAT-2                
1 39136U 13015G   18096.22473891  .00000747  00000-0  48682-4 0  9992
2 39136  64.8711  14.6826 0026886 244.6642 115.1699 15.15992719273683
ZACUBE-1 (TSHEPISOSAT)  
1 39417U 13066B   18096.08563530  .00000195  00000-0  30946-4 0  9995
2 39417  97.5948 128.5459 0059897  32.7423 327.7480 14.80902652236123
GOMX 1                  
1 39430U 13066Q   18096.36510068  .00000175  00000-0  40725-4 0  9993
2 39430  97.6921  78.4402 0151096 196.7560 162.8620 14.59047803232683
EAGLE 2                 
1 39436U 13066W   18096.31461593  .00177676  00000-0  14153-2 0  9997
2 39436  97.7122 227.2979 0001355 250.2815 109.8301 15.70636737242038
CUBEBUG-2 (LO-74)       
1 39440U 13066AA  18095.51867374  .00000208  00000-0  35894-4 0  9993
2 39440  97.6062 115.0554 0082033  71.9658 289.0469 14.75636776234004
FUNCUBE-1 (AO-73)       
1 39444U 13066AE  18096.52442247  .00000240  00000-0  36000-4 0  9993
2 39444  97.5959 130.3961 0058905  27.0689 333.3575 14.81672512235042
UWE-3                   
1 39446U 13066AG  18095.86889141  .00000208  00000-0  34249-4 0  9996
2 39446  97.5992 121.4888 0071459  52.5141 308.2540 14.78170850234434
SPROUT                  
1 39770U 14029E   18096.51595261  .00000497  00000-0  61922-4 0  9994
2 39770  97.8728 198.1828 0010840  85.6616 274.5870 14.86748535209714
UNISAT-6                
1 40012U 14033C   18096.11233713  .00000190  00000-0  35779-4 0  9998
2 40012  97.8189 335.0127 0059927  71.8710 288.9012 14.73787378204087
DUCHIFAT-1              
1 40021U 14033M   18095.74592420  .00000328  00000-0  39613-4 0  9993
2 40021  97.9170  14.3337 0014372  60.2400 300.0245 14.90244687206166
FUNCUBE-3 (EO-79)       
1 40025U 14033R   18096.22839423  .00000293  00000-0  37395-4 0  9994
2 40025  97.9074  11.7682 0013893  64.5157 295.7495 14.88669977206088
NUDT-PHONESAT           
1 40900U 15049B   18096.47278075  .00001983  00000-0  92450-4 0  9991
2 40900  97.4433 105.5621 0011763 282.1835  77.8083 15.21008889141014
ZDPS 2A                 
1 40901U 15049C   18096.44472015  .00000838  00000-0  45795-4 0  9997
2 40901  97.4604 103.9148 0012123 289.7729  70.2197 15.16955625140786
ZDPS 2B                 
1 40902U 15049D   18096.47474560  .00000774  00000-0  42790-4 0  9999
2 40902  97.4499 102.0855 0012150 286.3644  73.6253 15.16755023140772
XW-2A                   
1 40903U 15049E   18096.52364776  .00001686  00000-0  44019-4 0  9992
2 40903  97.3926 130.6465 0012610 291.5607  68.4294 15.40207716142776
KAITUO 1A               
1 40904U 15049F   18096.49187926  .00000668  00000-0  39292-4 0  9995
2 40904  97.4590 101.4169 0013173 289.9924 221.4044 15.14945512140642
2015-049G               
1 40905U 15049G   18096.50290341  .00000371  00000-0  24052-4 0  9993
2 40905  97.4591  99.6233 0014181 280.0500  79.9131 15.13907572140574
XW-2C                   
1 40906U 15049H   18096.46443764  .00000620  00000-0  36589-4 0  9993
2 40906  97.4608 101.2746 0013397 279.8517  80.1203 15.15091436140631
XW-2D                   
1 40907U 15049J   18096.48990883  .00000636  00000-0  37332-4 0  9999
2 40907  97.4581 101.0053 0012747 277.4308  82.5476 15.15235009140646
LILACSAT 2              
1 40908U 15049K   18096.47698937  .00000343  00000-0  22810-4 0  9994
2 40908  97.4690 100.4429 0014418 278.5205  81.4392 15.13451758140524
XW-2F                   
1 40910U 15049M   18096.49378839  .00000941  00000-0  51842-4 0  9996
2 40910  97.4586 102.1950 0013437 272.8978  87.0717 15.16377774140580
XW-2B                   
1 40911U 15049N   18096.50482222  .00000617  00000-0  36355-4 0  9993
2 40911  97.4617 101.5303 0012661 277.9376  82.0420 15.15181565140549
KAITUO 1B               
1 40912U 15049P   18096.53409825  .00001159  00000-0  59291-4 0  9991
2 40912  97.4515 104.8792 0013580 259.9995 198.9051 15.18576430140799
TIANWANG 1C (TW-1C)     
1 40926U 15051B   18096.54900067  .00006783  00000-0  13208-3 0  9999
2 40926  97.1914 139.2507 0010386 167.0569 335.8254 15.47826629142224
TIANWANG 1A (TW-1A)     
1 40928U 15051D   18096.35532407  .00002572  00000-0  70207-4 0  9994
2 40928  97.1932 131.7510 0010689 213.2264 339.2382 15.38284792141733
LAPAN-A2 (IO-86)        
1 40931U 15052B   18095.98813362  .00000699  00000-0  83617-5 0  9997
2 40931   6.0019 304.9222 0012786  65.1919 294.9597 14.76570853136317
E-ST@R-II               
1 41459U 16025D   18096.40636404  .00001556  00000-0  84995-4 0  9994
2 41459  98.1437 155.2691 0172694  29.6565 331.4315 15.04195947106639
AAUSAT 4                
1 41460U 16025E   18096.51761491  .00001464  00000-0  79766-4 0  9991
2 41460  98.1368 155.7781 0163449  25.6509 335.2726 15.05534389106705
NUSAT 1 (LO-87)         
1 41557U 16033B   18096.20750368  .00001328  00000-0  50998-4 0  9999
2 41557  97.4380 180.5569 0015140  56.5557 303.7127 15.28148088103162
BEESAT-4                
1 41619U 16040W   18096.21052406  .00001403  00000-0  64594-4 0  9996
2 41619  97.4224 160.3346 0013245 119.4824 240.7735 15.21897149 87143
ALSAT 1N                
1 41789U 16059G   18096.40618663  .00000081  00000-0  24663-4 0  9992
2 41789  98.1259 160.1757 0027245 315.5683  44.3337 14.64139578 81510
CAS-2T & KS-1Q          
1 41847U 16066G   18095.53416961  .00000187  00000-0  37843-4 0  9996
2 41847  98.7564 122.8826 0366883 100.2644 264.0116 14.37874742 73888
NAYIF-1 (EO-88)         
1 42017U 17008BX  18095.88707979  .00001361  00000-0  58826-4 0  9992
2 42017  97.4552 161.3580 0004783 274.6498  85.4193 15.24196827 63053
LILACSAT-1              
1 42725U 98067ME  18096.33561829  .00021444  00000-0  21030-3 0  9995
2 42725  51.6377   3.6686 0003225 329.7640  30.3169 15.66016622 49249
MAX VALIER SAT          
1 42778U 17036P   18095.89019263  .00000885  00000-0  42831-4 0  9999
2 42778  97.4113 156.7795 0011615 329.7144  30.3419 15.21141176 43511
FOX-1B (AO-91)          
1 43017U 17073E   18096.24930452  .00000424  00000-0  38542-4 0  9992
2 43017  97.7036  30.4034 0260909 145.5236 216.3214 14.77962139 20487
FOX-1D (AO-92)          
1 43137U 18004AC  18095.93994531  .00000932  00000-0  43265-4 0  9995
2 43137  97.5413 158.4195 0009463   3.7133 356.4172 15.22540662 12724
